INTELSAT 902 (IS-902)   
1 26900U 01039A   26195.54914038 -.00000295  00000+0  00000+0 0  9992
2 26900   6.1834  71.4466 0004217  40.6431 327.9041  1.00272956 90974
INTELSAT 904 (IS-904)   
1 27380U 02007A   26195.45850451 -.00000238  00000+0  00000+0 0  9996
2 27380   6.9859  68.8533 0005357  25.0293 332.0278  1.00270775 52037
DIRECTV 5 (TEMPO 1)     
1 27426U 02023A   26195.55403007 -.00000068  00000+0  00000+0 0  9998
2 27426   4.9455  74.9673 0003057  45.4732 261.3095  1.00271214 88398
INTELSAT 905 (IS-905)   
1 27438U 02027A   26195.54320030  .00000081  00000+0  00000+0 0  9992
2 27438   6.8199  69.4663 0003464  47.3616 233.9172  1.00271728 51637
GALAXY 3C (G-3C)        
1 27445U 02030A   26195.56468971 -.00000163  00000+0  00000+0 0  9995
2 27445   3.8023  77.6189 0001510  35.5728 287.6872  1.00270677 46768
INTELSAT 906 (IS-906)   
1 27513U 02041A   26195.21531611  .00000001  00000+0  00000+0 0  9997
2 27513   5.8686  72.5873 0003844  23.7209 337.4316  1.00272945 87302
GALAXY 13 (HORIZONS-1)  
1 27954U 03044A   26195.53789596  .00000124  00000+0  00000+0 0  9998
2 27954   1.4876  83.5148 0002155  28.5910 223.9175  1.00270996 46847
INTELSAT 10-02          
1 28358U 04022A   26195.55876043 -.00000019  00000+0  00000+0 0  9994
2 28358   0.0546 250.7792 0000431 353.4325 248.3532  1.00271097 80831
DIRECTV 8               
1 28659U 05019A   26195.53544698  .00000000  00000+0  00000+0 0  9990
2 28659   0.0192  47.2310 0003089  79.3546 239.5319  1.00270640 77348
GALAXY 28 (G-28)        
1 28702U 05022A   26195.45878229 -.00000210  00000+0  00000+0 0  9998
2 28702   3.3664  78.5961 0002573  25.2370 326.5489  1.00272095 52241
GALAXY 16 (G-16)        
1 29236U 06023A   26195.53943366 -.00000134  00000+0  00000+0 0  9992
2 29236   0.0125  94.4952 0002534  31.9261 261.1708  1.00271061 73240
DIRECTV 9S              
1 29494U 06043A   26195.53900032 -.00000123  00000+0  00000+0 0  9991
2 29494   2.4892  80.5713 0005000  33.9845 270.6786  1.00270977 51652
GALAXY 17 (G-17)        
1 31307U 07016B   26195.54220701 -.00000216  00000+0  00000+0 0  9990
2 31307   3.0385  79.5538 0003533  33.5707 289.4469  1.00271926 70075
INTELSAT 11 (IS-11)     
1 32253U 07044B   26195.56006043 -.00000153  00000+0  00000+0 0  9995
2 32253   3.6345  78.3362 0004166 100.7627 320.3280  0.99052024 68729
HORIZONS-2              
1 32388U 07063B   26195.54446036 -.00000263  00000+0  00000+0 0  9995
2 32388   2.6705  80.2897 0003530  19.8834 314.4241  1.00269380 68084
DIRECTV 11              
1 32729U 08013A   26195.53943366 -.00000133  00000+0  00000+0 0  9993
2 32729   0.0105 271.2272 0000084 291.1536 185.0288  1.00272107 45868
GALAXY 18 (G-18)        
1 32951U 08024A   26195.53466697  .00000018  00000+0  00000+0 0  9990
2 32951   0.0169  47.3498 0002837  79.4556 235.0622  1.00271247 46126
GALAXY 19 (G-19)        
1 33376U 08045A   26195.53986700 -.00000147  00000+0  00000+0 0  9991
2 33376   0.0593 248.7722 0002320 237.0169 263.9682  1.00272756 65173
FM-5                    
1 35493U 09034A   26194.90035760 -.00000205  00000+0  00000+0 0  9998
2 35493   0.0457 259.5714 0000757  86.9227 183.2440  1.00271245 46912
INTELSAT 14 (IS-14)     
1 36097U 09064A   26195.47854590 -.00000281  00000+0  00000+0 0  9999
2 36097   0.0219 302.2528 0002170 180.4414 296.9194  1.00268802 60871
INTELSAT 15 (IS-15)     
1 36106U 09067A   26195.57592275 -.00000192  00000+0  00000+0 0  9994
2 36106   0.0150 324.6728 0002199 154.7318 105.5006  1.00268740 41501
DIRECTV 12              
1 36131U 09075A   26195.56753963 -.00000111  00000+0  00000+0 0  9994
2 36131   0.0072 156.8097 0000327  69.3280 167.8714  1.00272001 46828
INTELSAT 16 (IS-16)     
1 36397U 10006A   26195.54394035 -.00000252  00000+0  00000+0 0  9999
2 36397   0.0121  29.6555 0002307 108.0889 274.2677  1.00270145 59922
XM-5                    
1 37185U 10053A   26194.27598828 -.00000026  00000+0  00000+0 0  9991
2 37185   0.0648 265.0318 0001728 322.3275  47.9546  1.00270903 57741
INTELSAT 17 (IS-17)     
1 37238U 10065B   26195.57753130 -.00000009  00000+0  00000+0 0  9997
2 37238   0.0066 131.1725 0002648   2.9232  72.2427  1.00270588 53525
INTELSAT 28 (IS-28)     
1 37392U 11016A   26195.19633601 -.00000233  00000+0  00000+0 0  9992
2 37392   1.8738  82.2861 0003704  40.6955 208.0408  1.00271187 53550
INTELSAT 18 (IS-18)     
1 37834U 11056A   26195.50808684  .00000045  00000+0  00000+0 0  9997
2 37834   0.0156 352.7163 0001693 131.8483 170.7053  1.00270578 54083
INTELSAT 22 (IS-22)     
1 38098U 12011A   26195.61294917 -.00000067  00000+0  00000+0 0  9997
2 38098   0.0119  34.1187 0001852  88.5745 102.5349  1.00272354  7463
INTELSAT 19 (IS-19)     
1 38356U 12030A   26195.60414825  .00000000  00000+0  00000+0 0  9992
2 38356   0.0269  48.9738 0003218  79.2801 187.7139  1.00269943 50728
INTELSAT 20 (IS-20)     
1 38740U 12043A   26195.57262941 -.00000032  00000+0  00000+0 0  9995
2 38740   0.0117  62.5582 0001223 114.7674  29.7527  1.00271131 51025
INTELSAT 21 (IS-21)     
1 38749U 12045A   26195.19052400 -.00000291  00000+0  00000+0 0  9998
2 38749   0.0563 254.8538 0001278 255.5602 152.2105  1.00263192 50796
